STARLINK-32292          
1 61889U 24204R   26068.53812908 -.00000873  00000+0 -17371-4 0  9994
2 61889  53.1601 127.8321 0001045 122.8246 237.2855 15.30187281 75076
TEVEL2-6                
1 63215U 25052F   26068.64958975  .00021046  00000+0  70909-3 0  9996
2 63215  97.4016 325.0381 0004769  95.6604 264.5181 15.30760889 54861
